{
    "links": {
        "self": "http://www.neowsapp.com/rest/v1/neo/3092288?api_key=iIulBulltgU6a56xZRHN4H3l9WmuAYTsLGpBGhQ2"
    },
    "id": "3092288",
    "neo_reference_id": "3092288",
    "name": "(2001 BN61)",
    "designation": "2001 BN61",
    "nasa_jpl_url": "http://ssd.jpl.nasa.gov/sbdb.cgi?sstr=3092288",
    "absolute_magnitude_h": 25.0,
    "estimated_diameter": {
        "kilometers": {
            "estimated_diameter_min": 0.02658,
            "estimated_diameter_max": 0.0594346868
        },
        "meters": {
            "estimated_diameter_min": 26.58,
            "estimated_diameter_max": 59.4346868419
        },
        "miles": {
            "estimated_diameter_min": 0.0165160412,
            "estimated_diameter_max": 0.0369309908
        },
        "feet": {
            "estimated_diameter_min": 87.2047272,
            "estimated_diameter_max": 194.9956979785
        }
    },
    "is_potentially_hazardous_asteroid": false,
    "close_approach_data": [
        {
            "close_approach_date": "2001-01-15",
            "close_approach_date_full": "2001-Jan-15 04:21",
            "epoch_date_close_approach": 979532460000,
            "relative_velocity": {
                "kilometers_per_second": "8.7837505397",
                "kilometers_per_hour": "31621.5019429723",
                "miles_per_hour": "19648.3715822874"
            },
            "miss_distance": {
                "astronomical": "0.0233017081",
                "lunar": "9.0643644509",
                "kilometers": "3485885.899121747",
                "miles": "2166029.0576122286"
            },
            "orbiting_body": "Earth"
        }
    ],
    "orbital_data": {
        "orbit_id": "11",
        "orbit_determination_date": "2017-04-06 09:16:33",
        "first_observation_date": "2001-01-19",
        "last_observation_date": "2001-01-21",
        "data_arc_in_days": 2,
        "observations_used": 8,
        "orbit_uncertainty": "9",
        "minimum_orbit_intersection": ".0230994",
        "jupiter_tisserand_invariant": "3.878",
        "epoch_osculation": "2451929.5",
        "eccentricity": ".4643269729243437",
        "semi_major_axis": "1.830369148351567",
        "inclination": "9.726408393430075",
        "ascending_node_longitude": "118.9791604047194",
        "orbital_period": "904.4955974357199",
        "perihelion_distance": ".9804793823633748",
        "perihelion_argument": "333.995054529856",
        "aphelion_distance": "2.680258914339759",
        "perihelion_time": "2451906.590452530159",
        "mean_anomaly": "9.118272230981074",
        "mean_motion": ".3980118875322489",
        "equinox": "J2000",
        "orbit_class": {
            "orbit_class_type": "APO",
            "orbit_class_description": "Near-Earth asteroid orbits which cross the Earth’s orbit similar to that of 1862 Apollo",
            "orbit_class_range": "a (semi-major axis) > 1.0 AU; q (perihelion) < 1.017 AU"
        }
    },
    "is_sentry_object": false
}